CCSDS_OMM_VERS = 2.0
CREATION_DATE  = 
ORIGINATOR     = 

OBJECT_NAME    = DRAGONFLY
OBJECT_ID      = 1998-067XH
CENTER_NAME    = EARTH
REF_FRAME      = TEME
TIME_SYSTEM    = UTC
MEAN_ELEMENT_THEORY = SGP/SGP4

EPOCH          = 2026-01-19T23:35:08.367072
MEAN_MOTION    = 15.93966842
ECCENTRICITY   = .00080857
INCLINATION    = 51.6172
RA_OF_ASC_NODE = 297.3075
ARG_OF_PERICENTER = 149.8808
MEAN_ANOMALY   = 210.2665

EPHEMERIS_TYPE = 0
CLASSIFICATION_TYPE = U
NORAD_CAT_ID   = 65729
ELEMENT_SET_NO = 999
REV_AT_EPOCH   = 1921
BSTAR          = .16327745E-2
MEAN_MOTION_DOT = .614365E-2
MEAN_MOTION_DDOT = .16506903E-3

CCSDS_OMM_VERS = 2.0
CREATION_DATE  = 
ORIGINATOR     = 

OBJECT_NAME    = 1998-067XK
OBJECT_ID      = 1998-067XK
CENTER_NAME    = EARTH
REF_FRAME      = TEME
TIME_SYSTEM    = UTC
MEAN_ELEMENT_THEORY = SGP/SGP4

EPOCH          = 2026-01-19T23:38:59.852544
MEAN_MOTION    = 15.75199599
ECCENTRICITY   = .00045604
INCLINATION    = 51.6269
RA_OF_ASC_NODE = 301.9166
ARG_OF_PERICENTER = 112.7646
MEAN_ANOMALY   = 247.3835

EPHEMERIS_TYPE = 0
CLASSIFICATION_TYPE = U
NORAD_CAT_ID   = 65731
ELEMENT_SET_NO = 999
REV_AT_EPOCH   = 1915
BSTAR          = .11388366E-2
MEAN_MOTION_DOT = .177712E-2
MEAN_MOTION_DDOT = 0

CCSDS_OMM_VERS = 2.0
CREATION_DATE  = 
ORIGINATOR     = 

OBJECT_NAME    = RSP-03
OBJECT_ID      = 1998-067XL
CENTER_NAME    = EARTH
REF_FRAME      = TEME
TIME_SYSTEM    = UTC
MEAN_ELEMENT_THEORY = SGP/SGP4

EPOCH          = 2026-01-19T21:04:21.569952
MEAN_MOTION    = 15.82392479
ECCENTRICITY   = .00056519
INCLINATION    = 51.6240
RA_OF_ASC_NODE = 300.4129
ARG_OF_PERICENTER = 125.9918
MEAN_ANOMALY   = 234.1609

EPHEMERIS_TYPE = 0
CLASSIFICATION_TYPE = U
NORAD_CAT_ID   = 65732
ELEMENT_SET_NO = 999
REV_AT_EPOCH   = 1917
BSTAR          = .12467278E-2
MEAN_MOTION_DOT = .272494E-2
MEAN_MOTION_DDOT = 0

CCSDS_OMM_VERS = 2.0
CREATION_DATE  = 
ORIGINATOR     = 

OBJECT_NAME    = GHS-01
OBJECT_ID      = 1998-067XM
CENTER_NAME    = EARTH
REF_FRAME      = TEME
TIME_SYSTEM    = UTC
MEAN_ELEMENT_THEORY = SGP/SGP4

EPOCH          = 2026-01-19T06:14:45.226752
MEAN_MOTION    = 16.15324625
ECCENTRICITY   = .00072378
INCLINATION    = 51.6179
RA_OF_ASC_NODE = 298.4544
ARG_OF_PERICENTER = 176.5958
MEAN_ANOMALY   = 183.5109

EPHEMERIS_TYPE = 0
CLASSIFICATION_TYPE = U
NORAD_CAT_ID   = 65733
ELEMENT_SET_NO = 999
REV_AT_EPOCH   = 1914
BSTAR          = .16629463E-2
MEAN_MOTION_DOT = .2137156E-1
MEAN_MOTION_DDOT = .51261268E-2

CCSDS_OMM_VERS = 2.0
CREATION_DATE  = 
ORIGINATOR     = 

OBJECT_NAME    = YOTSUBA-KULOVER
OBJECT_ID      = 1998-067XN
CENTER_NAME    = EARTH
REF_FRAME      = TEME
TIME_SYSTEM    = UTC
MEAN_ELEMENT_THEORY = SGP/SGP4

EPOCH          = 2026-01-19T23:03:18.738720
MEAN_MOTION    = 15.65717579
ECCENTRICITY   = .0004321
INCLINATION    = 51.6285
RA_OF_ASC_NODE = 307.0174
ARG_OF_PERICENTER = 132.4800
MEAN_ANOMALY   = 227.6561

EPHEMERIS_TYPE = 0
CLASSIFICATION_TYPE = U
NORAD_CAT_ID   = 65941
ELEMENT_SET_NO = 999
REV_AT_EPOCH   = 1583
BSTAR          = .11111441E-2
MEAN_MOTION_DOT = .115674E-2
MEAN_MOTION_DDOT = 0

CCSDS_OMM_VERS = 2.0
CREATION_DATE  = 
ORIGINATOR     = 

OBJECT_NAME    = BOTAN
OBJECT_ID      = 1998-067XP
CENTER_NAME    = EARTH
REF_FRAME      = TEME
TIME_SYSTEM    = UTC
MEAN_ELEMENT_THEORY = SGP/SGP4

EPOCH          = 2026-01-19T23:09:28.300032
MEAN_MOTION    = 15.73367014
ECCENTRICITY   = .00049647
INCLINATION    = 51.6260
RA_OF_ASC_NODE = 304.7795
ARG_OF_PERICENTER = 135.6475
MEAN_ANOMALY   = 224.4922

EPHEMERIS_TYPE = 0
CLASSIFICATION_TYPE = U
NORAD_CAT_ID   = 65942
ELEMENT_SET_NO = 999
REV_AT_EPOCH   = 1586
BSTAR          = .1431794E-2
MEAN_MOTION_DOT = .207283E-2
MEAN_MOTION_DDOT = 0

CCSDS_OMM_VERS = 2.0
CREATION_DATE  = 
ORIGINATOR     = 

OBJECT_NAME    = E-KAGAKU-1
OBJECT_ID      = 1998-067XQ
CENTER_NAME    = EARTH
REF_FRAME      = TEME
TIME_SYSTEM    = UTC
MEAN_ELEMENT_THEORY = SGP/SGP4

EPOCH          = 2026-01-19T21:31:21.974304
MEAN_MOTION    = 15.65671040
ECCENTRICITY   = .00028732
INCLINATION    = 51.6299
RA_OF_ASC_NODE = 307.3488
ARG_OF_PERICENTER = 135.4298
MEAN_ANOMALY   = 224.6929

EPHEMERIS_TYPE = 0
CLASSIFICATION_TYPE = U
NORAD_CAT_ID   = 65943
ELEMENT_SET_NO = 999
REV_AT_EPOCH   = 1582
BSTAR          = .1004394E-2
MEAN_MOTION_DOT = .104142E-2
MEAN_MOTION_DDOT = 0

CCSDS_OMM_VERS = 2.0
CREATION_DATE  = 
ORIGINATOR     = 

OBJECT_NAME    = HRC MONOBLOCK CAMERA
OBJECT_ID      = 1998-067XR
CENTER_NAME    = EARTH
REF_FRAME      = TEME
TIME_SYSTEM    = UTC
MEAN_ELEMENT_THEORY = SGP/SGP4

EPOCH          = 2026-01-19T19:28:09.675840
MEAN_MOTION    = 15.57022221
ECCENTRICITY   = .00009066
INCLINATION    = 51.6309
RA_OF_ASC_NODE = 311.2714
ARG_OF_PERICENTER = 24.1326
MEAN_ANOMALY   = 335.9708

EPHEMERIS_TYPE = 0
CLASSIFICATION_TYPE = U
NORAD_CAT_ID   = 66052
ELEMENT_SET_NO = 999
REV_AT_EPOCH   = 1476
BSTAR          = .53078823E-3
MEAN_MOTION_DOT = .3879E-3
MEAN_MOTION_DDOT = 0

CCSDS_OMM_VERS = 2.0
CREATION_DATE  = 
ORIGINATOR     = 

OBJECT_NAME    = HTV-X1
OBJECT_ID      = 2025-241A
CENTER_NAME    = EARTH
REF_FRAME      = TEME
TIME_SYSTEM    = UTC
MEAN_ELEMENT_THEORY = SGP/SGP4

EPOCH          = 2026-01-19T20:27:45.360576
MEAN_MOTION    = 15.49421762
ECCENTRICITY   = .0007802
INCLINATION    = 51.6333
RA_OF_ASC_NODE = 313.7948
ARG_OF_PERICENTER = 37.0742
MEAN_ANOMALY   = 323.0784

EPHEMERIS_TYPE = 0
CLASSIFICATION_TYPE = U
NORAD_CAT_ID   = 66174
ELEMENT_SET_NO = 999
REV_AT_EPOCH   = 51
BSTAR          = .27166724E-3
MEAN_MOTION_DOT = .14779E-3
MEAN_MOTION_DDOT = 0

CCSDS_OMM_VERS = 2.0
CREATION_DATE  = 
ORIGINATOR     = 

OBJECT_NAME    = SZ-21 MODULE
OBJECT_ID      = 2025-246C
CENTER_NAME    = EARTH
REF_FRAME      = TEME
TIME_SYSTEM    = UTC
MEAN_ELEMENT_THEORY = SGP/SGP4

EPOCH          = 2026-01-19T17:37:14.644992
MEAN_MOTION    = 15.64766041
ECCENTRICITY   = .0002737
INCLINATION    = 41.4760
RA_OF_ASC_NODE = 143.8781
ARG_OF_PERICENTER = 205.5931
MEAN_ANOMALY   = 154.4774

EPHEMERIS_TYPE = 0
CLASSIFICATION_TYPE = U
NORAD_CAT_ID   = 66515
ELEMENT_SET_NO = 999
REV_AT_EPOCH   = 1039
BSTAR          = .287037E-3
MEAN_MOTION_DOT = .28507E-3
MEAN_MOTION_DDOT = 0

CCSDS_OMM_VERS = 2.0
CREATION_DATE  = 
ORIGINATOR     = 

OBJECT_NAME    = SHENZHOU-22
OBJECT_ID      = 2025-272A
CENTER_NAME    = EARTH
REF_FRAME      = TEME
TIME_SYSTEM    = UTC
MEAN_ELEMENT_THEORY = SGP/SGP4

EPOCH          = 2026-01-19T17:49:49.539072
MEAN_MOTION    = 15.60698772
ECCENTRICITY   = .00108949
INCLINATION    = 41.4665
RA_OF_ASC_NODE = 145.7156
ARG_OF_PERICENTER = 318.3768
MEAN_ANOMALY   = 41.6241

EPHEMERIS_TYPE = 0
CLASSIFICATION_TYPE = U
NORAD_CAT_ID   = 66645
ELEMENT_SET_NO = 999
REV_AT_EPOCH   = 26764
BSTAR          = .22854108E-3
MEAN_MOTION_DOT = .19282E-3
MEAN_MOTION_DDOT = 0

CCSDS_OMM_VERS = 2.0
CREATION_DATE  = 
ORIGINATOR     = 

OBJECT_NAME    = SOYUZ-MS 28
OBJECT_ID      = 2025-275A
CENTER_NAME    = EARTH
REF_FRAME      = TEME
TIME_SYSTEM    = UTC
MEAN_ELEMENT_THEORY = SGP/SGP4

EPOCH          = 2026-01-19T20:27:45.360576
MEAN_MOTION    = 15.49421762
ECCENTRICITY   = .0007802
INCLINATION    = 51.6333
RA_OF_ASC_NODE = 313.7948
ARG_OF_PERICENTER = 37.0742
MEAN_ANOMALY   = 323.0784

EPHEMERIS_TYPE = 0
CLASSIFICATION_TYPE = U
NORAD_CAT_ID   = 66664
ELEMENT_SET_NO = 999
REV_AT_EPOCH   = 128
BSTAR          = .27166724E-3
MEAN_MOTION_DOT = .14779E-3
MEAN_MOTION_DDOT = 0

