DRAGONFLY               
1 65729U 98067XH  26019.98273573  .00614365  16507-3  16328-2 0  9990
2 65729  51.6172 297.3075 0008085 149.8808 210.2665 15.93966842 19213
1998-067XK              
1 65731U 98067XK  26019.98541496  .00177712  00000+0  11388-2 0  9993
2 65731  51.6269 301.9166 0004560 112.7646 247.3835 15.75199599 19159
RSP-03                  
1 65732U 98067XL  26019.87802743  .00272494  00000+0  12467-2 0  9999
2 65732  51.6240 300.4129 0005651 125.9918 234.1609 15.82392479 19177
GHS-01                  
1 65733U 98067XM  26019.26024568  .02137156  51261-2  16629-2 0  9993
2 65733  51.6179 298.4544 0007237 176.5958 183.5109 16.15324625 19148
YOTSUBA-KULOVER         
1 65941U 98067XN  26019.96063355  .00115674  00000+0  11111-2 0  9990
2 65941  51.6285 307.0174 0004321 132.4800 227.6561 15.65717579 15833
BOTAN                   
1 65942U 98067XP  26019.96491088  .00207283  00000+0  14318-2 0  9999
2 65942  51.6260 304.7795 0004964 135.6475 224.4922 15.73367014 15869
E-KAGAKU-1              
1 65943U 98067XQ  26019.89678211  .00104142  00000+0  10044-2 0  9999
2 65943  51.6299 307.3488 0002873 135.4298 224.6929 15.65671040 15821
HRC MONOBLOCK CAMERA    
1 66052U 98067XR  26019.81122310  .00038790  00000+0  53079-3 0  9998
2 66052  51.6309 311.2714 0000906  24.1326 335.9708 15.57022221 14767
HTV-X1                  
1 66174U 25241A   26019.85260834  .00014779  00000+0  27167-3 0  9995
2 66174  51.6333 313.7948 0007802  37.0742 323.0784 15.49421762   516
SZ-21 MODULE            
1 66515U 25246C   26019.73419728  .00028507  00000+0  28704-3 0  9996
2 66515  41.4760 143.8781 0002737 205.5931 154.4774 15.64766041 10398
SHENZHOU-22             
1 66645U 25272A   26019.74293448  .00019282  00000+0  22854-3 0  9999
2 66645  41.4665 145.7156 0010894 318.3768  41.6241 15.60698772267646
SOYUZ-MS 28             
1 66664U 25275A   26019.85260834  .00014779  00000+0  27167-3 0  9996
2 66664  51.6333 313.7948 0007802  37.0742 323.0784 15.49421762  1285
